[{"OBJECT_NAME":"HORACIO","OBJECT_ID":"2024-043A","EPOCH":"2026-03-09T21:54:40.867200","MEAN_MOTION":14.98036627,"ECCENTRICITY":0.00104103,"INCLINATION":97.8349,"RA_OF_ASC_NODE":200.1753,"ARG_OF_PERICENTER":2.9871,"MEAN_ANOMALY":357.1411,"EPHEMERIS_TYPE":0,"CLASSIFICATION_TYPE":"U","NORAD_CAT_ID":59098,"ELEMENT_SET_NO":999,"REV_AT_EPOCH":10980,"BSTAR":0.00038157841,"MEAN_MOTION_DOT":4.455e-5,"MEAN_MOTION_DDOT":0},{"OBJECT_NAME":"STARLINK-36205","OBJECT_ID":"2025-298Z","EPOCH":"2026-03-09T22:26:49.176096","MEAN_MOTION":14.9914569,"ECCENTRICITY":0.00028056,"INCLINATION":70.0015,"RA_OF_ASC_NODE":13.8601,"ARG_OF_PERICENTER":265.4327,"MEAN_ANOMALY":94.6512,"EPHEMERIS_TYPE":0,"CLASSIFICATION_TYPE":"U","NORAD_CAT_ID":67098,"ELEMENT_SET_NO":999,"REV_AT_EPOCH":1325,"BSTAR":4.5969871e-5,"MEAN_MOTION_DOT":4.67e-6,"MEAN_MOTION_DDOT":0}]
